#dP2018  3 14  0  0  0.00000000      96 __u+U IGS08 FIT  IAC
## 1992 259200.00000000   900.00000000 58191 0.0000000000000
+   88   C01C02C03C04C05C06C07C08C09C10C11C12C13C14E01E02E03
+        E04E05E07E08E09E11E12E14E18E19E24E26E30G01G02G03G04
+        G05G06G07G08G09G10G11G12G13G14G15G16G17G18G19G20G21
+        G22G23G24G25G26G27G28G29G30G31G32J01J03R01R02R03R04
+        R05R06R07R08R09R10R11R13R14R15R16R17R18R19R20R21R22
+        R23R24R26  0  0  0  0  0  0  0  0  0  0  0  0  0  0
++        12 11 12 12 12  8  8  8  8  8  7  8  8  7  7  7  7
++         7  7  7  7  7  7  7  7  7  7  7  7  7  3  3  3  4
++         3  3  3  3  3  3  3  3  3  3  3  3  3  3  3  3  3
++         3  3  3  3  3  3  3  3  3  3  3  0 11  5  5  5  7
++         5  5  5  7  5  5  5  5  5  5  5  5  5  5  5  5  5
++         5  5  8  0  0  0  0  0  0  0  0  0  0  0  0  0  0
%c M  cc GPS ccc cccc cccc cccc cccc ccccc ccccc ccccc ccccc
%c cc cc ccc ccc cccc cccc cccc cccc ccccc ccccc ccccc ccccc
%f  1.2500000  1.025000000  0.00000000000  0.000000000000000
%f  0.0000000  0.000000000  0.00000000000  0.000000000000000
%i    0    0    0    0      0      0      0      0         0
%i    0    0    0    0      0      0      0      0         0
/* INFORMATION & ANALYSIS CENTER (IAC)            FINAL DATA
/* S/V CLOCKS ARE ALIGNED TO GPS & GLONASS TIME RESPECTIVELY
/* USING THE BROADCAST EPHEMERIS                            
/* PCV:IGS14_1984 OL/AL:FES2004  NONE     YN ORB:CoN CLK:CoN
*  2018 03 14  1 45  0.00000000
PC01 -32333.403441  27070.322127   -351.991439    480.271693
PC02   4409.053958  41926.251236   -416.546476   -290.050070
PC03 -14758.615026  39460.005584  -1154.632814   -389.174502
PC04 -39616.255281  14397.204929   -401.713186     30.146077
PC05  21961.189299  35981.624583   -403.706338   -173.074617
PC06 -19579.132339  23537.423233  29097.692675   -677.250682
PC07 -17601.454133  38351.318495   4186.632823    934.177434
PC08  -6099.835802  25510.579308 -32864.393834    227.509782
PC09  -4002.039393  24694.240074  34062.936868   -318.030392
PC10  -8335.587983  40742.758420  -7879.477359    -81.230550
PC11 -18673.891284 -17753.457525  10865.052452   -426.740962
PC12    301.526247 -16618.499058  22490.821863    393.153210
PC13   7146.431959  34333.232223 -23191.345698   -245.212941
PC14  -8046.715425 -13876.536057 -22780.568903    288.552443
PE01  17274.301079 -15035.730965 -18759.350215   -297.489210
PE02 -17264.975848  15048.283878  18741.424687      7.419722
PE03 -27482.259736   9879.632574   4853.499591     -9.309898
PE04  12722.340987 -17599.751659 -20112.929990      6.271214
PE05 -26183.826022  -3661.054139 -13305.624728    304.639051
PE07   9570.655484  15030.594241  23642.253291     68.505256
PE08 -12600.234894  17609.552239  20188.316637   6624.618512
PE09  -9635.707750 -14810.332463 -23743.068743   6849.573746
PE11 -15701.363417 -23895.144577   7619.486738   1843.480520
PE12   1714.903359 -19709.230946  22021.357425   3706.372479
PE14  26262.042865  12691.052528  -6276.950096   6616.220073
PE18 -26398.099972   -983.609240  -7966.430236   6360.284768
PE19  28094.350743  -8821.950057  -3058.297909     20.297539
PE24  -3749.928496 -24380.880423  16364.135941   6814.577599
PE26  23588.808073  14269.027178  10787.095448   6168.560714
PE30  -9604.914494  27946.352519   1570.169462   6004.721071
PG01  15324.650717   -623.930855  21575.979458    -34.007745
PG02 -14234.790795 -20910.787829  -7964.745336    174.955162
PG03  20860.058772  -8681.470320  13900.657536     28.120552
PG04  -2998.242500  20005.578702 -17297.706632     44.227091
PG05 -12145.380177  -9705.394019 -21636.782586    -12.164973
PG06  -6322.845612 -25618.192396   2958.881644    412.702168
PG07   8247.513864 -16959.082910 -18312.756993    223.425022
PG08  26237.359130   4532.413901    943.369816    -94.276736
PG09  16327.921994 -10094.637073 -18396.662856    506.497106
PG10  -7439.701535  21905.669606  12946.765129    169.876628
PG11  19519.001190   1277.994655  17351.866317   -737.318113
PG12 -20683.031448   6396.760256  15064.624502    345.484519
PG13 -22349.165192 -12604.938394  -6962.011440    -95.527536
PG14  10808.594246  16419.724541  18225.104546    -95.092076
PG15 -26610.186167  -2737.087066    858.303472   -356.436147
PG16  10962.417257   9830.810655 -22261.411853     30.320267
PG17  -1477.769431 -15511.618293  21913.001364   -115.940482
PG18  17046.857311   8574.086241  18103.480476     -5.598320
PG19  -9003.482065 -16047.414929  18795.181331   -451.023977
PG20 -20242.639465  10365.217012 -13824.267345    503.118382
PG21  -4791.439591  20034.474307 -15957.308863   -419.863635
PG22  19315.163291  -1969.981296  18372.284749   -322.214804
PG23  25139.016469  -1549.128597  -8802.646570   -218.607249
PG24 -16777.294875  -2623.373986  20369.337694    -47.240029
PG25 -19401.412532  17467.890260   3953.095045   -553.079076
PG26   2331.689165  18066.263445 -19287.879498   -218.780965
PG27  20638.697499  12296.761250 -11669.282732    369.433198
PG28  11561.497774 -21305.020456  11529.856045    696.823968
PG29 -19652.321958   6188.129697 -16764.678631    482.740857
PG30   2716.262304 -23445.241227 -12033.024779     95.161391
PG31   6366.629196  25504.622126   1521.884903    135.613847
PG32   1423.901915  15679.211854  21426.403907   -528.538793
PJ01 -27176.693052  32322.250395   4847.415701 999999.999999
PJ03 -32290.579641  16793.873781 -16636.251690    -16.324016
PR01  10437.590258   7138.721589  22151.658865     23.320258
PR02  23222.983343  -4817.421919   9489.236149    299.692800
PR03  20545.751519 -12784.944415  -8093.746202    126.624292
PR04   5397.102249 -13189.465653 -21144.769965    253.270775
PR05 -12066.965881  -6148.035029 -21625.355782   -264.151332
PR06 -23328.809141   5617.826692  -8622.872327    128.689494
PR07 -20248.725422  12899.601183   8600.504088    -32.447802
PR08  -6027.526511  13331.512291  20944.541724     33.540262
PR09 -11296.283766   1181.873742  22853.658447     42.299323
PR10  -9402.450676  18740.851688  14556.389788     20.331664
PR11  -2234.201898  25289.846043  -2658.730521    -23.941584
PR13  11046.077885  -1952.035973 -22931.780247     -8.386373
PR14   9577.002870 -18479.168939 -14736.206210     25.434138
PR15   4014.744252 -25225.506795  -1054.583681     -7.431302
PR16  -6288.135706 -17511.737735  17481.894414     87.758632
PR17  10572.687732  -5092.267791  22659.122773    116.426268
PR18  -4844.844907 -15226.376825  19878.644493    188.105358
PR19 -17645.115734 -17494.578861   5759.942919    -47.215226
PR20 -20187.386474  -8780.133888 -12823.962709   -330.531578
PR21 -10332.892075   5205.830569 -22728.159772     25.416210
PR22   6708.336129  15998.996236 -18748.294365    -26.246149
PR23  19468.438851  16341.516394  -2207.436458    141.549962
PR24  20196.150429   7927.061114  13413.672579   -163.631591
PR26 -20493.676166  -8647.476927 -12485.738158      5.115219
EOF
